STARLINK-2103           
1 47383U 21005AL  24003.21267837 -.00000102  00000+0  12053-4 0  9996
2 47383  53.0559 357.4249 0001567 100.4137 259.7029 15.06386955163555
STARLINK-2104           
1 47384U 21005AM  24003.21912792  .00001541  00000+0  12233-3 0  9990
2 47384  53.0552   7.3580 0001481  76.6130 283.5024 15.06394600163411
STARLINK-2105           
1 47385U 21005AN  24003.28175632  .00000547  00000+0  55619-4 0  9993
2 47385  53.0562   6.8373 0001512  95.3110 264.8052 15.06388152163427
STARLINK-2106           
1 47386U 21005AP  24003.37759030 -.00000987  00000+0 -47398-4 0  9999
2 47386  53.0547   6.4022 0001379  95.1565 264.9581 15.06388083163444
STARLINK-2108           
1 47387U 21005AQ  24003.36377147 -.00000700  00000+0 -28096-4 0  9991
2 47387  53.0555  36.4703 0001443  83.2819 276.8334 15.06388125163013
STARLINK-2109           
1 47388U 21005AR  24003.37851698 -.00000366  00000+0 -56728-5 0  9993
2 47388  53.0548  36.3985 0001405  81.3765 278.7383 15.06381929163014
STARLINK-2110           
1 47389U 21005AS  24003.42363976  .00001642  00000+0  12910-3 0  9996
2 47389  53.0548  16.1851 0001343  83.0884 277.0258 15.06394618163309
STARLINK-2111           
1 47390U 21005AT  24003.35271093 -.00000069  00000+0  14288-4 0  9992
2 47390  53.0540  36.5144 0001456  89.7057 270.4099 15.06386220163012
STARLINK-2112           
1 47391U 21005AU  24003.22920663  .00000060  00000+0  22962-4 0  9991
2 47391  53.0567   7.0689 0001476 109.0621 251.0528 15.06391710163410
STARLINK-2113           
1 47392U 21005AV  24003.23014937 -.00001409  00000+0 -75769-4 0  9994
2 47392  53.0559   7.0695 0001419  80.0770 280.0380 15.06388508163418
STARLINK-2114           
1 47393U 21005AW  24003.25646160  .00002760  00000+0  20417-3 0  9994
2 47393  53.0551 342.3042 0001481  81.1617 278.9539 15.06394899163763
STARLINK-2115           
1 47394U 21005AX  24003.38728692  .00001399  00000+0  11284-3 0  9999
2 47394  53.0556   1.5190 0001449  89.7122 270.4033 15.06392398163517
STARLINK-2117           
1 47395U 21005AY  24003.20896200 -.00001565  00000+0 -86251-4 0  9996
2 47395  53.0570 357.1614 0001382  85.5762 274.5385 15.06388188163556
STARLINK-2118           
1 47396U 21005AZ  24003.38496770  .00001567  00000+0  12410-3 0  9999
2 47396  53.0550   6.3667 0001414 103.9323 256.1824 15.06399099163445
STARLINK-2119           
1 47397U 21005BA  24003.38220043  .00001000  00000+0  86043-4 0  9994
2 47397  53.0555  36.3837 0001384  85.3574 274.7573 15.06387639163028
STARLINK-2120           
1 47398U 21005BB  24003.42182348  .00000661  00000+0  63315-4 0  9994
2 47398  53.0556   6.2054 0001648  84.8432 275.2745 15.06393727163445
STARLINK-2121           
1 47399U 21005BC  24003.32509087 -.00000858  00000+0 -38731-4 0  9991
2 47399  53.0552  16.8788 0001385  94.7139 265.4008 15.06393130163288
STARLINK-2122           
1 47400U 21005BD  24003.35271229  .00000943  00000+0  82238-4 0  9995
2 47400  53.0558 356.5251 0001393  96.3736 263.7411 15.06391406163571
STARLINK-2123           
1 47401U 21005BE  24003.23753285  .00001666  00000+0  13074-3 0  9994
2 47401  53.0548   7.0303 0001312  97.8373 262.2765 15.06385061163421
STARLINK-2124           
1 47402U 21005BF  24003.32230235  .00001150  00000+0  96093-4 0  9991
2 47402  53.0556   6.6479 0001439  93.3846 266.7308 15.06387074163435
STARLINK-2127           
1 47403U 21005BG  24003.39602134  .00002572  00000+0  19158-3 0  9995
2 47403  53.0545   6.3175 0001244  84.9475 275.1656 15.06386373163444
STARLINK-2128           
1 47404U 21005BH  24003.39232453  .00001719  00000+0  13429-3 0  9996
2 47404  53.0539   6.3280 0001385 121.4650 238.6475 15.06399622163447
STARLINK-2130           
1 47405U 21005BJ  24003.50751614 -.00004285  00000+0 -26893-3 0  9997
2 47405  53.0544  35.8175 0001512 113.9779 246.1369 15.06401697163031
STARLINK-2133           
1 47406U 21005BK  24003.40339114  .00001418  00000+0  11407-3 0  9992
2 47406  53.0552   6.2851 0001376  84.4978 275.6168 15.06391751163443
STARLINK-2134           
1 47407U 21005BL  24003.27806865  .00001240  00000+0  10213-3 0  9997
2 47407  53.0559   6.8531 0001352  85.3760 274.7384 15.06389827163424
STARLINK-2135           
1 47408U 21005BM  24003.31493074  .00000005  00000+0  19264-4 0  9991
2 47408  53.0547   6.6822 0001596  76.7530 283.3637 15.06394008163437
SPACEBEE-62             
1 47429U 21006S   24003.17548456  .00080438  00000+0  12081-2 0  9990
2 47429  97.3543  70.3383 0006032  69.4692 290.7209 15.54593904163644
ASTROCAST-0101          
1 47430U 21006T   24003.49397525  .00006791  00000+0  29597-3 0  9997
2 47430  97.3697  59.5739 0009875 119.7267 240.4954 15.22467063161867
UVSQ-SAT                
1 47438U 21006AB  24003.11787678  .00023219  00000+0  72002-3 0  9999
2 47438  97.3561  63.1642 0009419  92.1834 268.0487 15.33373038163181
YUSAT-1                 
1 47439U 21006AC  24003.15241823  .00034744  00000+0  88207-3 0  9990
2 47439  97.3561  65.1571 0008126  84.9598 275.2575 15.39549742163311
AII-CHARLIE             
1 47440U 21006AD  24003.13386368  .00032529  00000+0  83774-3 0  9997
2 47440  97.3599  65.0750 0008172  88.2834 271.9347 15.39124417163300
SPACEBEE-63             
1 47442U 21006AF  24003.16036699  .00043820  00000+0  10399-2 0  9999
2 47442  97.3601  64.5794 0004283  98.7183 261.4549 15.41574698163222
SOMP2B                  
1 47445U 21006AJ  24003.09947622  .00020430  00000+0  66084-3 0  9996
2 47445  97.3527  62.0205 0009424  97.2584 262.9729 15.32049112163137
KEPLER-12 (BOBA)        
1 47446U 21006AK  24003.10216861  .00021149  00000+0  76109-3 0  9990
2 47446  97.3622  61.9637 0009296  94.4644 265.7658 15.28579826163074
CUBEL                   
1 47448U 21006AM  24003.60406431  .00006332  00000+0  30641-3 0  9999
2 47448  97.3700  59.2340 0012430 113.1891 247.0654 15.18860646162868
LEMUR-2-NEVA            
1 47450U 21006AP  24003.17426108  .00451191  00000+0  20648-2 0  9999
2 47450  97.3645  73.1417 0000919 285.0271  75.0896 15.82555936163771
FLOCK 4S-22             
1 47452U 21006AR  24003.11562794  .00017297  00000+0  46466-3 0  9999
2 47452  97.3644  66.9916 0008682  82.9964 277.2269 15.37947667163376
KEPLER-13 (LUCKY)       
1 47454U 21006AT  24003.10293490  .00060049  00000+0  11241-2 0  9999
2 47454  97.3533  66.8116 0005657  73.5326 286.6546 15.48483117163428
FLOCK 4S-21             
1 47456U 21006AV  24003.16535982  .00021153  00000+0  55456-3 0  9992
2 47456  97.3620  67.1315 0007968  81.3866 278.8281 15.38665012163384
IDEASSAT                
1 47458U 21006AX  24003.13251334  .00018187  00000+0  61240-3 0  9998
2 47458  97.3625  62.8238 0008960  97.4575 262.7684 15.30782572163107
SPACEBEE-55             
1 47459U 21006AY  24003.57716660  .00061945  00000+0  11864-2 0  9991
2 47459  97.3512  67.1309 0006514  84.0555 276.1437 15.47810007163505
KEPLER-15 (SUDORMRF)    
1 47461U 21006BA  24003.11803743  .00048432  00000+0  10710-2 0  9998
2 47461  97.3547  64.6702 0005157  98.6087 261.5745 15.43663494163274
FLOCK 4S-11             
1 47462U 21006BB  24003.59204684  .00007538  00000+0  32835-3 0  9995
2 47462  97.3631  58.8208 0007912 122.2940 237.9064 15.22462917162902
SPACEBEE-57             
1 47465U 21006BE  24003.13797216  .00042836  00000+0  10284-2 0  9999
2 47465  97.3542  63.6381 0003900  98.5838 261.5851 15.41230709163211
FLOCK 4S-33             
1 47469U 21006BJ  24003.10427519  .00020305  00000+0  54716-3 0  9992
2 47469  97.3575  65.9444 0004975  87.8089 272.3725 15.37844330163348
FLOCK 4S-12             
1 47471U 21006BL  24003.13093271  .00021801  00000+0  57313-3 0  9990
2 47471  97.3589  66.4922 0006333  98.5641 261.6322 15.38585005163353
FLOCK 4S-13             
1 47472U 21006BM  24003.15520500  .00025345  00000+0  63826-3 0  9996
2 47472  97.3593  67.0963 0006231  91.6061 268.5899 15.39875410163378
FLOCK 4S-31             
1 47475U 21006BQ  24003.15413453  .00042430  00000+0  69077-3 0  9995
2 47475  97.3557  70.4414 0004359  70.4009 289.7714 15.52529964163664
KEPLER-8 (AMAROK)       
1 47476U 21006BR  24003.10719327  .00046233  00000+0  10653-2 0  9990
2 47476  97.3637  65.7036 0005760 104.8775 255.3110 15.42442134163267
FLOCK 4S-34             
1 47477U 21006BS  24003.13898782  .00020548  00000+0  54670-3 0  9996
2 47477  97.3617  66.6622 0005534  93.2609 266.9269 15.38232792163358
FLOCK 4S-9              
1 47478U 21006BT  24003.12159842  .00020270  00000+0  54964-3 0  9991
2 47478  97.3585  65.7979 0005871  96.0162 264.1752 15.37646236163344
NASA PTD-1              
1 47482U 21006BX  24003.15910072  .00253267  00000+0  19533-2 0  9995
2 47482  97.3689  70.9412 0002333 106.8240 253.3278 15.71193043163592
P2-10                   
1 47483U 21006BY  24003.17133214  .00347337  00000+0  19429-2 0  9999
2 47483  97.3450  71.5980 0002150   6.4267 353.7027 15.78399861163733
ARCE-1C                 
1 47484U 21006BZ  24002.43587561  .02284578  57230-2  24861-2 0  9991
2 47484  97.2852  72.7601 0004970 303.1713  56.9094 16.11317638163766
QPS-SAR-2 (IZANAMI)     
1 47485U 21006CA  24003.56273055  .00076360  00000+0  12944-2 0  9992
2 47485  97.3573  68.1811 0005029  83.1021 277.0803 15.51245512163514
CELESTIS-17 & SHERPA-FX1
1 47486U 21006CB  24003.15236726  .00004397  00000+0  22035-3 0  9996
2 47486  97.3578  56.3080 0010198 120.1357 240.0889 15.17821118162724
ASTROCAST-0103          
1 47487U 21006CC  24003.14767398  .00007955  00000+0  34577-3 0  9997
2 47487  97.3777  59.7956 0009554 128.9435 231.2654 15.22506356162858
ASTROCAST-0102          
1 47488U 21006CD  24003.10025945  .00012156  00000+0  51691-3 0  9994
2 47488  97.3696  59.0207 0009908 111.1079 249.1218 15.23127451162841
FLOCK 4S-39             
1 47490U 21006CF  24003.17164413  .00022083  00000+0  58284-3 0  9993
2 47490  97.3675  67.4693 0007143  79.8743 280.3307 15.38456399163377
FLOCK 4S-4              
1 47491U 21006CG  24003.11934423  .00020865  00000+0  56227-3 0  9995
2 47491  97.3532  65.6425 0007330  81.0022 279.2052 15.37823012163368
